IRIDIUM 150             
1 43257U 18030J   23326.52903576  .00000246  00000+0  80856-4 0  9998
2 43257  86.3942 322.3513 0002491  96.6635 263.4844 14.34220128295762
IRIDIUM 143             
1 43258U 18030K   23326.50999267  .00000260  00000+0  85740-4 0  9992
2 43258  86.3947 322.4147 0002479  88.3338 271.8142 14.34219344295724
IRIDIUM 161             
1 43478U 18047C   23327.50931154  .00000638  00000+0  18354-3 0  9991
2 43478  86.4469 119.9722 0002055  93.5088 266.6348 14.43278420290035
IRIDIUM 152             
1 43479U 18047D   23326.90132349  .00000261  00000+0  86110-4 0  9992
2 43479  86.3942 120.0862 0002190  86.3486 273.7960 14.34220852288145
IRIDIUM 147             
1 43480U 18047E   23327.46580875  .00000592  00000+0  20428-3 0  9993
2 43480  86.3943 119.8388 0001972  99.8483 260.2935 14.34219269288222
IRIDIUM 110             
1 43481U 18047F   23326.84423637  .00000315  00000+0  10527-3 0  9999
2 43481  86.3945 120.1662 0001873  99.4944 260.6463 14.34219851288129
IRIDIUM 162             
1 43482U 18047G   23326.87903405  .00000636  00000+0  18297-3 0  9997
2 43482  86.4467 120.1385 0002071  93.6489 266.4949 14.43277212289931
IRIDIUM 160             
1 43569U 18061A   23327.41799529  .00000497  00000+0  17024-3 0  9992
2 43569  86.3956  88.2816 0001869  84.5026 275.6383 14.34220103279101
